QIANFAN-81              
1 63167U 25046J   26008.29978152  .00000211  00000+0  30713-3 0  9999
2 63167  88.9788 317.1257 0016549  47.5027 312.7519 13.51013217 51074
QIANFAN-82              
1 63168U 25046K   26008.26030261  .00000244  00000+0  35881-3 0  9994
2 63168  88.9788 317.1738 0014790  54.9048 305.3488 13.50986224 51057
QIANFAN-83              
1 63169U 25046L   26008.22035131  .00000288  00000+0  35764-3 0  9990
2 63169  88.9789 316.9024 0015833  40.6902 319.5435 13.61987093 51207
QIANFAN-84              
1 63170U 25046M   26008.21383721  .00000220  00000+0  32214-3 0  9995
2 63170  88.9788 317.3111 0017705  51.4435 308.8300 13.50996015 50978
QIANFAN-85              
1 63171U 25046N   26008.21078599 -.00000199  00000+0 -32693-3 0  9998
2 63171  88.9783 317.1833 0015092  53.7991 306.4553 13.50984939 51047
QIANFAN-86              
1 63172U 25046P   26008.29318377  .00000241  00000+0  35437-3 0  9993
2 63172  88.9790 317.0374 0013056  57.8258 302.4158 13.50986880 51138
QIANFAN-87              
1 63173U 25046Q   26008.26455714  .00000258  00000+0  38051-3 0  9991
2 63173  88.9786 317.1510 0013655  53.7407 306.5003 13.50984569 51061
QIANFAN-88              
1 63174U 25046R   26008.28076238  .00000238  00000+0  34953-3 0  9999
2 63174  88.9789 317.1045 0014135  60.5093 299.7466 13.50990842 51099
